[{"OBJECT_NAME":"STARLINK-5651","OBJECT_ID":"2023-013AC","EPOCH":"2026-03-09T08:41:54.106656","MEAN_MOTION":15.02535305,"ECCENTRICITY":0.00012962,"INCLINATION":43.0051,"RA_OF_ASC_NODE":301.8119,"ARG_OF_PERICENTER":269.3716,"MEAN_ANOMALY":90.6978,"EPHEMERIS_TYPE":0,"CLASSIFICATION_TYPE":"U","NORAD_CAT_ID":55357,"ELEMENT_SET_NO":999,"REV_AT_EPOCH":17166,"BSTAR":2.1450466e-5,"MEAN_MOTION_DOT":8.6e-7,"MEAN_MOTION_DDOT":0},{"OBJECT_NAME":"DELTA 1 DEB","OBJECT_ID":"1972-058EG","EPOCH":"2026-03-09T15:29:57.375744","MEAN_MOTION":14.93143945,"ECCENTRICITY":0.0071537,"INCLINATION":98.4418,"RA_OF_ASC_NODE":299.7647,"ARG_OF_PERICENTER":185.1751,"MEAN_ANOMALY":174.8735,"EPHEMERIS_TYPE":0,"CLASSIFICATION_TYPE":"U","NORAD_CAT_ID":8314,"ELEMENT_SET_NO":999,"REV_AT_EPOCH":83297,"BSTAR":0.00043799,"MEAN_MOTION_DOT":4.734e-5,"MEAN_MOTION_DDOT":0}]
